{"type": "FeatureCollection", "features": [{"type": "Feature", "properties": {"norad_id": 25590, "name": "COSMOS 2361", "group": "musson", "lat": -19.68655482544123, "lon": -20.98800047207397, "alt_km": 990.9242531471637, "timestamp": "2025-12-16T03:53:27.325190+00:00", "meta": {"OBJECT_NAME": "COSMOS 2361", "OBJECT_ID": "1998-076A", "EPOCH": "2025-12-15T05:18:18.458208", "MEAN_MOTION": 13.73217757, "ECCENTRICITY": 0.00300774, "INCLINATION": 82.9341, "RA_OF_ASC_NODE": 342.2511, "ARG_OF_PERICENTER": 258.3986, "MEAN_ANOMALY": 111.8614, "EPHEMERIS_TYPE": 0, "CLASSIFICATION_TYPE": "U", "NORAD_CAT_ID": 25590, "ELEMENT_SET_NO": 999, "REV_AT_EPOCH": 35145, "BSTAR": 7.2799317e-05, "MEAN_MOTION_DOT": 8.2e-07, "MEAN_MOTION_DDOT": 0}, "tle": {"line1": "1 25590U 98076A   25349.22104697  .00000082  00000+0  72799-4 0  9992", "line2": "2 25590  82.9341 342.2511 0030077 258.3986 111.8614 13.73217757351459"}}, "geometry": {"type": "Point", "coordinates": [-20.98800047207397, -19.68655482544123]}}, {"type": "Feature", "properties": {"norad_id": 26818, "name": "COSMOS 2378", "group": "musson", "lat": 62.7389568763301, "lon": 11.129392934751975, "alt_km": 994.5018340277056, "timestamp": "2025-12-16T03:53:27.325213+00:00", "meta": {"OBJECT_NAME": "COSMOS 2378", "OBJECT_ID": "2001-023A", "EPOCH": "2025-12-15T03:26:43.794816", "MEAN_MOTION": 13.74142132, "ECCENTRICITY": 0.00325512, "INCLINATION": 82.9272, "RA_OF_ASC_NODE": 357.9424, "ARG_OF_PERICENTER": 198.1021, "MEAN_ANOMALY": 229.9424, "EPHEMERIS_TYPE": 0, "CLASSIFICATION_TYPE": "U", "NORAD_CAT_ID": 26818, "ELEMENT_SET_NO": 999, "REV_AT_EPOCH": 22956, "BSTAR": 4.6879707e-05, "MEAN_MOTION_DOT": 5.9e-07, "MEAN_MOTION_DDOT": 0}, "tle": {"line1": "1 26818U 01023A   25349.14356244  .00000059  00000+0  46880-4 0  9996", "line2": "2 26818  82.9272 357.9424 0032551 198.1021 229.9424 13.74142132229563"}}, "geometry": {"type": "Point", "coordinates": [11.129392934751975, 62.7389568763301]}}, {"type": "Feature", "properties": {"norad_id": 27436, "name": "COSMOS 2389", "group": "musson", "lat": -75.36908090809794, "lon": -83.84249884321738, "alt_km": 1010.1648615132535, "timestamp": "2025-12-16T03:53:27.325227+00:00", "meta": {"OBJECT_NAME": "COSMOS 2389", "OBJECT_ID": "2002-026A", "EPOCH": "2025-12-15T08:03:05.840064", "MEAN_MOTION": 13.75154984, "ECCENTRICITY": 0.00475656, "INCLINATION": 82.9504, "RA_OF_ASC_NODE": 305.063, "ARG_OF_PERICENTER": 53.6971, "MEAN_ANOMALY": 99.5994, "EPHEMERIS_TYPE": 0, "CLASSIFICATION_TYPE": "U", "NORAD_CAT_ID": 27436, "ELEMENT_SET_NO": 999, "REV_AT_EPOCH": 18184, "BSTAR": 6.5391168e-05, "MEAN_MOTION_DOT": 7.9e-07, "MEAN_MOTION_DDOT": 0}, "tle": {"line1": "1 27436U 02026A   25349.33548426  .00000079  00000+0  65391-4 0  9993", "line2": "2 27436  82.9504 305.0630 0047565  53.6971  99.5994 13.75154984181841"}}, "geometry": {"type": "Point", "coordinates": [-83.84249884321738, -75.36908090809794]}}, {"type": "Feature", "properties": {"norad_id": 27818, "name": "COSMOS 2398", "group": "musson", "lat": -22.208821452214696, "lon": 93.07300088879676, "alt_km": 1000.2991398630375, "timestamp": "2025-12-16T03:53:27.325240+00:00", "meta": {"OBJECT_NAME": "COSMOS 2398", "OBJECT_ID": "2003-023A", "EPOCH": "2025-12-15T08:14:59.476416", "MEAN_MOTION": 13.72385979, "ECCENTRICITY": 0.00326449, "INCLINATION": 82.9485, "RA_OF_ASC_NODE": 270.7794, "ARG_OF_PERICENTER": 104.8339, "MEAN_ANOMALY": 16.078, "EPHEMERIS_TYPE": 0, "CLASSIFICATION_TYPE": "U", "NORAD_CAT_ID": 27818, "ELEMENT_SET_NO": 999, "REV_AT_EPOCH": 12852, "BSTAR": 3.8936152e-05, "MEAN_MOTION_DOT": 5.1e-07, "MEAN_MOTION_DDOT": 0}, "tle": {"line1": "1 27818U 03023A   25349.34374394  .00000051  00000+0  38936-4 0  9992", "line2": "2 27818  82.9485 270.7794 0032644 104.8339  16.0780 13.72385979128521"}}, "geometry": {"type": "Point", "coordinates": [93.07300088879676, -22.208821452214696]}}, {"type": "Feature", "properties": {"norad_id": 28380, "name": "COSMOS 2407", "group": "musson", "lat": 82.02835661634866, "lon": -87.7103373111848, "alt_km": 947.0844483912124, "timestamp": "2025-12-16T03:53:27.325251+00:00", "meta": {"OBJECT_NAME": "COSMOS 2407", "OBJECT_ID": "2004-028A", "EPOCH": "2025-12-15T09:07:03.465408", "MEAN_MOTION": 13.76313957, "ECCENTRICITY": 0.00402373, "INCLINATION": 82.9602, "RA_OF_ASC_NODE": 210.938, "ARG_OF_PERICENTER": 47.6754, "MEAN_ANOMALY": 124.7853, "EPHEMERIS_TYPE": 0, "CLASSIFICATION_TYPE": "U", "NORAD_CAT_ID": 28380, "ELEMENT_SET_NO": 999, "REV_AT_EPOCH": 7459, "BSTAR": 6.5739359e-05, "MEAN_MOTION_DOT": 8e-07, "MEAN_MOTION_DDOT": 0}, "tle": {"line1": "1 28380U 04028A   25349.37990122  .00000080  00000+0  65739-4 0  9992", "line2": "2 28380  82.9602 210.9380 0040237  47.6754 124.7853 13.76313957 74592"}}, "geometry": {"type": "Point", "coordinates": [-87.7103373111848, 82.02835661634866]}}, {"type": "Feature", "properties": {"norad_id": 28521, "name": "COSMOS 2414", "group": "musson", "lat": 47.41918751456471, "lon": -5.6685299248575305, "alt_km": 901.7672794501032, "timestamp": "2025-12-16T03:53:27.325262+00:00", "meta": {"OBJECT_NAME": "COSMOS 2414", "OBJECT_ID": "2005-002A", "EPOCH": "2025-12-15T06:29:45.944160", "MEAN_MOTION": 13.87903292, "ECCENTRICITY": 0.00410324, "INCLINATION": 82.9489, "RA_OF_ASC_NODE": 182.7461, "ARG_OF_PERICENTER": 132.6111, "MEAN_ANOMALY": 227.8526, "EPHEMERIS_TYPE": 0, "CLASSIFICATION_TYPE": "U", "NORAD_CAT_ID": 28521, "ELEMENT_SET_NO": 999, "REV_AT_EPOCH": 5830, "BSTAR": 7.172898e-05, "MEAN_MOTION_DOT": 1.02e-06, "MEAN_MOTION_DDOT": 0}, "tle": {"line1": "1 28521U 05002A   25349.27067065  .00000102  00000+0  71729-4 0  9993", "line2": "2 28521  82.9489 182.7461 0041032 132.6111 227.8526 13.87903292 58306"}}, "geometry": {"type": "Point", "coordinates": [-5.6685299248575305, 47.41918751456471]}}, {"type": "Feature", "properties": {"norad_id": 32052, "name": "COSMOS 2429", "group": "musson", "lat": 69.25738943214687, "lon": 141.80078950187988, "alt_km": 969.8527359349755, "timestamp": "2025-12-16T03:53:27.325273+00:00", "meta": {"OBJECT_NAME": "COSMOS 2429", "OBJECT_ID": "2007-038A", "EPOCH": "2025-12-15T08:09:16.862400", "MEAN_MOTION": 13.75149618, "ECCENTRICITY": 0.00390955, "INCLINATION": 82.9805, "RA_OF_ASC_NODE": 341.3918, "ARG_OF_PERICENTER": 30.763, "MEAN_ANOMALY": 329.5806, "EPHEMERIS_TYPE": 0, "CLASSIFICATION_TYPE": "U", "NORAD_CAT_ID": 32052, "ELEMENT_SET_NO": 999, "REV_AT_EPOCH": 91638, "BSTAR": 6.8100853e-05, "MEAN_MOTION_DOT": 8.1e-07, "MEAN_MOTION_DDOT": 0}, "tle": {"line1": "1 32052U 07038A   25349.33977850  .00000081  00000+0  68101-4 0  9993", "line2": "2 32052  82.9805 341.3918 0039095  30.7630 329.5806 13.75149618916385"}}, "geometry": {"type": "Point", "coordinates": [141.80078950187988, 69.25738943214687]}}, {"type": "Feature", "properties": {"norad_id": 35635, "name": "COSMOS 2454", "group": "musson", "lat": -27.165178934621633, "lon": -10.311429378255912, "alt_km": 946.466202787441, "timestamp": "2025-12-16T03:53:27.325284+00:00", "meta": {"OBJECT_NAME": "COSMOS 2454", "OBJECT_ID": "2009-039A", "EPOCH": "2025-12-15T06:59:56.349888", "MEAN_MOTION": 13.89928933, "ECCENTRICITY": 0.00204016, "INCLINATION": 82.9554, "RA_OF_ASC_NODE": 166.7105, "ARG_OF_PERICENTER": 66.8977, "MEAN_ANOMALY": 106.987, "EPHEMERIS_TYPE": 0, "CLASSIFICATION_TYPE": "U", "NORAD_CAT_ID": 35635, "ELEMENT_SET_NO": 999, "REV_AT_EPOCH": 83185, "BSTAR": 6.3376272e-05, "MEAN_MOTION_DOT": 9.4e-07, "MEAN_MOTION_DDOT": 0}, "tle": {"line1": "1 35635U 09039A   25349.29162442  .00000094  00000+0  63376-4 0  9997", "line2": "2 35635  82.9554 166.7105 0020401  66.8977 106.9870 13.89928933831854"}}, "geometry": {"type": "Point", "coordinates": [-10.311429378255912, -27.165178934621633]}}, {"type": "Feature", "properties": {"norad_id": 36519, "name": "COSMOS 2463", "group": "musson", "lat": 22.56238544118873, "lon": 27.140458645961807, "alt_km": 999.6088939120518, "timestamp": "2025-12-16T03:53:27.325294+00:00", "meta": {"OBJECT_NAME": "COSMOS 2463", "OBJECT_ID": "2010-017A", "EPOCH": "2025-12-15T08:34:36.799104", "MEAN_MOTION": 13.71649309, "ECCENTRICITY": 0.00347526, "INCLINATION": 82.9611, "RA_OF_ASC_NODE": 24.7891, "ARG_OF_PERICENTER": 280.4961, "MEAN_ANOMALY": 90.3849, "EPHEMERIS_TYPE": 0, "CLASSIFICATION_TYPE": "U", "NORAD_CAT_ID": 36519, "ELEMENT_SET_NO": 999, "REV_AT_EPOCH": 78273, "BSTAR": 4.7775729e-05, "MEAN_MOTION_DOT": 5.8e-07, "MEAN_MOTION_DDOT": 0}, "tle": {"line1": "1 36519U 10017A   25349.35737036  .00000058  00000+0  47776-4 0  9997", "line2": "2 36519  82.9611  24.7891 0034752 280.4961  90.3849 13.71649309782738"}}, "geometry": {"type": "Point", "coordinates": [27.140458645961807, 22.56238544118873]}}]}